CZ-2D R/B               
1 28738U 05024B   26071.01821709  .00043465  00000+0  52958-3 0  9996
2 28738  97.3600  86.2502 0005489  40.4701 319.6963 15.60374594140141
ALOS (DAICHI)           
1 28931U 06002A   26071.29407543  .00001805  00000+0  31044-3 0  9999
2 28931  98.1220  27.2364 0000841  61.0446 299.0844 14.69820577 73864
H-2A R/B                
1 28932U 06002B   26071.31455198  .00010707  00000+0  53493-3 0  9995
2 28932  98.2411 218.5640 0051932 231.9791 127.6746 15.16483920 94835
RESURS-DK 1             
1 29228U 06021A   26071.18040981  .00003892  00000+0  22745-3 0  9993
2 29228  69.9325 230.5792 0001644 160.8628 199.2600 15.12764715 87903
CZ-4B R/B               
1 29507U 06046C   26071.11588416  .00004686  00000+0  23816-3 0  9995
2 29507  97.5596 116.0188 0031679 258.4841 101.2834 15.16932678 60417
CZ-2C R/B               
1 31114U 07010B   26071.26209868  .00000171  00000+0  97995-4 0  9996
2 31114  98.3979 184.4117 0057871 286.9714  72.5126 14.20247341980084
COSMO-SKYMED 1          
1 31598U 07023A   26071.27208691  .00004403  00000+0  39215-3 0  9992
2 31598  97.8879 262.3244 0001481  97.9849 262.1540 14.96558699 15298
COSMOS 2428             
1 31792U 07029A   26071.29572732  .00000032  00000+0  42639-4 0  9995
2 31792  70.9436 197.8732 0009213 274.4850  85.5219 14.12946675964469
SL-16 R/B               
1 31793U 07029B   26071.32021113  .00000155  00000+0  10490-3 0  9997
2 31793  70.9758 166.8558 0002266 275.9418 141.1099 14.14834186965748
KORONAS-FOTON           
1 33504U 09003A   26071.03357247  .00009856  00000+0  21956-3 0  9997
2 33504  82.4278 273.4409 0011397 141.8970 218.3085 15.43371632946100
CZ-2C R/B               
1 37731U 11030B   26071.33293460  .00002127  00000+0  27363-3 0  9997
2 37731  97.8542  28.5429 0052151 343.4508 178.4248 14.81234954790482
H-2A R/B                
1 38341U 12025E   26070.87009374  .00003519  00000+0  32069-3 0  9992
2 38341  98.4739  38.0911 0043203 307.1184  52.6090 14.95189354748548
SHIJIAN-16 (SJ-16)      
1 39358U 13057A   26071.31058192  .00003049  00000+0  30013-3 0  9994
2 39358  74.9729 180.1267 0015453 105.6502 254.6393 14.92361141671895
SL-4 R/B                
1 39679U 14021B   26070.96624170  .00015383  00000+0  33848-3 0  9990
2 39679  51.6083 326.1718 0097301 111.2955 249.8451 15.39266038656622
ALOS-2                  
1 39766U 14029A   26071.28880078  .00003168  00000+0  43048-3 0  9993
2 39766  97.9185 169.8479 0001471  96.9587 263.1792 14.79517919637259
YAOGAN-29               
1 41038U 15069A   26071.29094569  .00000683  00000+0  90768-4 0  9997
2 41038  98.0144  99.7277 0001720  31.5860 328.5456 14.82998618556261
ASTRO-H (HITOMI)        
1 41337U 16012A   26070.94768426  .00003441  00000+0  20065-3 0  9996
2 41337  31.0006 341.9769 0009757 353.9535   6.0985 15.10023348552579
HXMT (HUIYAN)           
1 42758U 17034A   26071.27885994  .00007594  00000+0  37814-3 0  9999
2 42758  43.0160   2.2782 0033170 251.7462 107.9775 15.17507493482938
SAOCOM 1A               
1 43641U 18076A   26071.25837492  .00000720  00000+0  97003-4 0  9997
2 43641  97.8898 259.3941 0001426  88.7129 271.4248 14.82142000401746
H-2A R/B                
1 43682U 18084L   26071.13474591  .00021414  00000+0  50752-3 0  9997
2 43682  98.8733 289.0453 0025225  17.0298 343.1785 15.41463122406153
SAOCOM 1B               
1 46265U 20059A   26071.28962287  .00000815  00000+0  10893-3 0  9996
2 46265  97.8898 258.5226 0001420  86.3895 273.7481 14.82151949299130
CSS (TIANHE)            
1 48274U 21035A   26071.21114556  .00026987  00000+0  31717-3 0  9990
2 48274  41.4662 192.8178 0006768 286.7169  73.2927 15.60804947278003
COSMOS 2550             
1 48865U 21056A   26071.32125340 -.00000190  00000+0  52004-7 0  9999
2 48865  67.1461  32.9714 0008370 269.5659  90.4536 15.33837480263868
CZ-2C R/B               
1 52794U 22058K   26071.21243916  .00034325  00000+0  49772-3 0  9996
2 52794  50.1892 305.3108 0042110 211.4951 148.3498 15.54430524210525
CZ-2C R/B               
1 54039U 22132E   26070.99833859  .00045731  00000+0  51693-3 0  9996
2 54039  97.2966  74.3851 0020440  83.8448 276.5138 15.62072161190738
GSLV R/B                
1 54149U 22138AN  26071.26132063  .00004231  00000+0  36539-3 0  9996
2 54149  87.3873 165.5013 0023261 137.9057 222.3967 14.96795723184319
XRISM                   
1 57800U 23137A   26071.21604297  .00005595  00000+0  31635-3 0  9997
2 57800  31.0012 267.3229 0007900  64.2433 295.9020 15.11531804138174
ACS3                    
1 59588U 24077B   26071.30600486  .00032954  00000+0  26351-1 0  9998
2 59588  97.2054  11.8295 0061653  70.1577 290.6219 13.89760412 94562
SZ-21 MODULE            
1 66515U 25246C   26070.66510517  .00042405  00000+0  36183-3 0  9996
2 66515  41.4734 191.1990 0001230 305.0978  54.9749 15.68721611 18382
